IRIDIUM 166             
1 43570U 18061B   24330.40252844  .00000075  00000+0  19887-4 0  9994
2 43570  86.3938 294.4183 0002034  78.2996 281.8428 14.34217883331875
IRIDIUM 158             
1 43571U 18061C   24330.44058191  .00000179  00000+0  56789-4 0  9995
2 43571  86.3937 294.4125 0002391  80.2419 279.9047 14.34219342331844
IRIDIUM 165             
1 43572U 18061D   24329.83803642  .00000258  00000+0  85003-4 0  9995
2 43572  86.3936 294.7001 0002152  87.7395 272.4047 14.34219424331782
IRIDIUM 155             
1 43573U 18061E   24330.42789859  .00000035  00000+0  56107-5 0  9993
2 43573  86.3933 294.3497 0002222  78.7482 281.3964 14.34217890331838
IRIDIUM 154             
1 43574U 18061F   24330.40887152  .00000122  00000+0  36346-4 0  9996
2 43574  86.3938 294.4637 0002231  87.8722 272.2730 14.34218050331883
IRIDIUM 163             
1 43575U 18061G   24330.38984020  .00000614  00000+0  21222-3 0  9998
2 43575  86.3937 294.4047 0002488  82.8464 277.3015 14.34213686331859
IRIDIUM 156             
1 43576U 18061H   24330.43424142  .00000011  00000+0 -31549-5 0  9996
2 43576  86.3931 294.3929 0002165  77.8416 282.3022 14.34217282331855
IRIDIUM 164             
1 43577U 18061J   24330.41521791  .00000257  00000+0  84782-4 0  9990
2 43577  86.3949 294.4340 0002917  78.1153 282.0370 14.34208556331891
